[
    {
        "Altitude(m)": 604234.6248242867,
        "Argument of Periapsis(deg)": 0.0,
        "Eccentricity": 0.0,
        "Inclination(deg)": 60.0,
        "Latitude(deg)": 14.117324694541871,
        "Longitude(deg)": 116.72733860956504,
        "Mean Anomaly(deg)": 163.6364,
        "RAAN(deg)": 45.0,
        "Satellite Name": "Test1 208",
        "Satellite Number": 208,
        "Semi-Major Axis(m)": 6980739.136638005,
        "Time(s)": 0
    },
    {
        "Altitude(m)": 604223.4528094687,
        "Argument of Periapsis(deg)": 0.00010418945913296404,
        "Eccentricity": 0.0,
        "Inclination(deg)": 60.0,
        "Latitude(deg)": 13.58246083966567,
        "Longitude(deg)": 117.01424744787265,
        "Mean Anomaly(deg)": 164.25650614546186,
        "RAAN(deg)": 44.99957995086026,
        "Satellite Name": "Test1 208",
        "Satellite Number": 208,
        "Semi-Major Axis(m)": 6980739.136638005,
        "Time(s)": 10
    }
]